SatCatId,ObjectName,LaunchYear,OrbitalPeriod,LaunchMass,StatusCode,Inclination,Status,UcsData,OrbitClassEstimated,LaunchSiteCountry,Owner,UseType,Purpose,LaunchVehicleClass,TLE1,TLE2,MeanMotion,Eccentricity,OrbitClass
50813,STARLINK-3349,2022,95.44,260.0,+,53.22,Active,1,LEO,USA,USA,Commercial,Communications,Falcon,1 50813U 22001L   24131.55844479  .00014103  00000+0  90228-3 0  9991,2 50813  53.2167 278.4288 0001301  94.8319 265.2822 15.08845098129682,15.08845098,0.0001301,LEO
50814,STARLINK-3324,2022,95.44,260.0,+,53.22,Active,1,LEO,USA,USA,Commercial,Communications,Falcon,1 50814U 22001M   24131.60904993  .00000387  00000+0  42392-4 0  9995,2 50814  53.2183 288.2537 0001209  87.2815 272.8316 15.08835888129555,15.08835888,0.0001209,LEO
50815,STARLINK-3234,2022,95.44,260.0,+,53.22,Active,1,LEO,USA,USA,Commercial,Communications,Falcon,1 50815U 22001N   24131.62009147  .00001226  00000+0  95120-4 0  9995,2 50815  53.2177 288.2039 0001622  84.8137 275.3041 15.08836213129551,15.08836213,0.0001622,LEO
50816,STARLINK-3342,2022,95.44,260.0,+,53.22,Active,1,LEO,USA,USA,Commercial,Communications,Falcon,1 50816U 22001P   24131.59064819  .00002602  00000+0  18149-3 0  9993,2 50816  53.2173 288.3328 0001074  77.7982 282.3131 15.08842659129548,15.08842659,0.0001074,LEO
50817,STARLINK-3341,2022,95.44,260.0,+,53.22,Active,1,LEO,USA,USA,Commercial,Communications,Falcon,1 50817U 22001Q   24131.61640920 -.00000493  00000+0 -12888-4 0  9993,2 50817  53.2184 288.2200 0001057  88.4249 271.6864 15.08834112129555,15.08834112,0.0001057,LEO
50818,STARLINK-3336,2022,95.44,260.0,+,53.22,Active,1,LEO,USA,USA,Commercial,Communications,Falcon,1 50818U 22001R   24131.46553374 -.00000488  00000+0 -12569-4 0  9993,2 50818  53.2186 288.8979 0001293  91.0793 269.0348 15.08832222129528,15.08832222,0.0001293,LEO
50819,STARLINK-3327,2022,95.44,260.0,+,53.22,Active,1,LEO,USA,USA,Commercial,Communications,Falcon,1 50819U 22001S   24131.47288933  .00015912  00000+0  10158-2 0  9997,2 50819  53.2168 288.8652 0001545 103.1491 256.9674 15.08833391129533,15.08833391,0.0001545,LEO
50820,STARLINK-3339,2022,95.44,260.0,+,53.22,Active,1,LEO,USA,USA,Commercial,Communications,Falcon,1 50820U 22001T   24131.58697680 -.00001154  00000+0 -54462-4 0  9997,2 50820  53.2183 288.3507 0001080  69.4048 290.7060 15.08841229129547,15.08841229,0.000108,LEO
50821,STARLINK-3346,2022,95.44,260.0,+,53.22,Active,1,LEO,USA,USA,Commercial,Communications,Falcon,1 50821U 22001U   24131.16375101  .00017240  00000+0  10982-2 0  9991,2 50821  53.2170 290.1362 0001271  86.5210 273.5927 15.08855392129487,15.08855392,0.0001271,LEO
50822,STARLINK-3343,2022,95.44,260.0,+,53.22,Active,1,LEO,USA,USA,Commercial,Communications,Falcon,1 50822U 22001V   24131.57960538  .00007715  00000+0  50216-3 0  9992,2 50822  53.2181 288.3783 0001839 113.0454 247.0733 15.08848337129541,15.08848337,0.0001839,LEO
50823,STARLINK-3334,2022,95.44,260.0,+,53.22,Active,1,LEO,USA,USA,Commercial,Communications,Falcon,1 50823U 22001W   24131.61273212 -.00000346  00000+0 -36774-5 0  9994,2 50823  53.2167 288.2393 0001221 101.2693 258.8436 15.08832730129552,15.0883273,0.0001221,LEO
50824,STARLINK-3340,2022,95.43,260.0,+,53.22,Active,1,LEO,USA,USA,Commercial,Communications,Falcon,1 50824U 22001X   24131.57590531  .00037166  00000+0  23370-2 0  9999,2 50824  53.2172 288.4006 0000962  58.2659 301.8426 15.08902935129548,15.08902935,9.62e-05,LEO
50825,STARLINK-3332,2022,95.44,260.0,+,53.22,Active,1,LEO,USA,USA,Commercial,Communications,Falcon,1 50825U 22001Y   24131.58328925  .00003379  00000+0  23026-3 0  9995,2 50825  53.2171 288.3655 0001299  91.8867 268.2274 15.08843784129548,15.08843784,0.0001299,LEO
50826,STARLINK-3337,2022,94.25,260.0,P,53.22,Active,1,LEO,USA,USA,Commercial,Communications,Falcon,1 50826U 22001Z   24131.57094784  .00078618  00000+0  28357-2 0  9997,2 50826  53.2157 277.3604 0004710 300.6371  59.4164 15.27843626130981,15.27843626,0.000471,LEO
50827,STARLINK-3329,2022,95.44,260.0,+,53.22,Active,1,LEO,USA,USA,Commercial,Communications,Falcon,1 50827U 22001AA  24131.59432658  .00000061  00000+0  21930-4 0  9995,2 50827  53.2195 288.3214 0001414 105.0170 255.0978 15.08838558129549,15.08838558,0.0001414,LEO
50828,STARLINK-3290,2022,95.44,260.0,+,53.22,Active,1,LEO,USA,USA,Commercial,Communications,Falcon,1 50828U 22001AB  24131.58054631  .00002996  00000+0  20617-3 0  9995,2 50828  53.2169 288.2691 0001244  93.6189 266.4946 15.08848069129394,15.08848069,0.0001244,LEO
50829,STARLINK-3294,2022,95.44,260.0,+,53.22,Active,1,LEO,USA,USA,Commercial,Communications,Falcon,1 50829U 22001AC  24131.13799806  .00022979  00000+0  14563-2 0  9992,2 50829  53.2169 290.3662 0001118  74.5983 285.5132 15.08862860129470,15.0886286,0.0001118,LEO
50830,STARLINK-3278,2022,95.44,260.0,+,53.22,Active,1,LEO,USA,USA,Commercial,Communications,Falcon,1 50830U 22001AD  24131.61916968  .00001838  00000+0  13354-3 0  9996,2 50830  53.2168 298.2056 0001160  88.1000 272.0125 15.08839507129412,15.08839507,0.000116,LEO
50831,STARLINK-3299,2022,95.44,260.0,+,53.22,Active,1,LEO,USA,USA,Commercial,Communications,Falcon,1 50831U 22001AE  24131.16745232  .00007323  00000+0  47747-3 0  9999,2 50831  53.2170 290.3025 0001269  84.2507 275.8630 15.08858083129483,15.08858083,0.0001269,LEO
50832,STARLINK-3328,2022,95.44,260.0,+,53.22,Active,1,LEO,USA,USA,Commercial,Communications,Falcon,1 50832U 22001AF  24131.62013260  .00000143  00000+0  27082-4 0  9994,2 50832  53.2163 298.2504 0000996  75.1180 284.9922 15.08836693129418,15.08836693,9.96e-05,LEO
50833,STARLINK-3316,2022,93.66,260.0,P,53.21,Active,1,LEO,USA,USA,Commercial,Communications,Falcon,1 50833U 22001AG  24131.58334491  .00130816  00000+0  34467-2 0  9996,2 50833  53.2061 255.5695 0006470 260.1795 181.0574 15.37562170  5921,15.3756217,0.000647,LEO
50834,STARLINK-3331,2022,95.44,260.0,+,53.22,Active,1,LEO,USA,USA,Commercial,Communications,Falcon,1 50834U 22001AH  24131.47196789  .00028515  00000+0  18016-2 0  9995,2 50834  53.2166 298.8654 0000938  87.3470 272.7630 15.08858076129384,15.08858076,9.38e-05,LEO
50835,STARLINK-3310,2022,95.44,260.0,+,53.22,Active,1,LEO,USA,USA,Commercial,Communications,Falcon,1 50835U 22001AJ  24131.60814366  .00000482  00000+0  48369-4 0  9998,2 50835  53.2177 298.3699 0001412 100.7114 259.4037 15.08836446129407,15.08836446,0.0001412,LEO
50836,STARLINK-3330,2022,95.43,260.0,+,53.22,Active,1,LEO,USA,USA,Commercial,Communications,Falcon,1 50836U 22001AK  24131.18953486  .00013098  00000+0  83898-3 0  9991,2 50836  53.2182 299.9132 0001442  66.8721 293.2423 15.08861879129247,15.08861879,0.0001442,LEO
50837,STARLINK-3318,2022,95.44,260.0,+,53.22,Active,1,LEO,USA,USA,Commercial,Communications,Falcon,1 50837U 22001AL  24131.43608482  .00001904  00000+0  13767-3 0  9994,2 50837  53.2181 289.0285 0000894  77.4488 282.6604 15.08843444129526,15.08843444,8.94e-05,LEO
50838,STARLINK-3322,2022,95.44,260.0,+,53.22,Active,1,LEO,USA,USA,Commercial,Communications,Falcon,1 50838U 22001AM  24131.49266784 -.00001123  00000+0 -52515-4 0  9996,2 50838  53.2180 293.7698 0001253 111.2293 248.8833 15.08833261129464,15.08833261,0.0001253,LEO
50839,STARLINK-3320,2022,95.44,260.0,+,53.22,Active,1,LEO,USA,USA,Commercial,Communications,Falcon,1 50839U 22001AN  24131.45356880  .00006714  00000+0  43952-3 0  9993,2 50839  53.2180 298.9526 0000864  87.1158 272.9933 15.08838676129374,15.08838676,8.64e-05,LEO
50840,STARLINK-3295,2022,95.44,260.0,+,53.22,Active,1,LEO,USA,USA,Commercial,Communications,Falcon,1 50840U 22001AP  24131.44988883  .00002253  00000+0  15958-3 0  9997,2 50840  53.2180 298.9670 0001451  87.1568 272.9590 15.08841826129374,15.08841826,0.0001451,LEO
50841,STARLINK-3300,2022,95.44,260.0,+,53.22,Active,1,LEO,USA,USA,Commercial,Communications,Falcon,1 50841U 22001AQ  24131.46092714  .00004250  00000+0  28490-3 0  9993,2 50841  53.2165 298.9149 0001223  75.1269 284.9859 15.08846562129385,15.08846562,0.0001223,LEO
50842,STARLINK-3302,2022,95.44,260.0,+,53.22,Active,1,LEO,USA,USA,Commercial,Communications,Falcon,1 50842U 22001AR  24131.44619432  .00008373  00000+0  54310-3 0  9994,2 50842  53.2154 298.9815 0000764  67.6645 292.4428 15.08867490129375,15.0886749,7.64e-05,LEO
50843,STARLINK-3325,2022,95.44,260.0,+,53.22,Active,1,LEO,USA,USA,Commercial,Communications,Falcon,1 50843U 22001AS  24131.46828655  .00005358  00000+0  35438-3 0  9996,2 50843  53.2162 298.8831 0001231  72.9569 287.1558 15.08848646130588,15.08848646,0.0001231,LEO
50844,STARLINK-3326,2022,95.44,260.0,+,53.22,Active,1,LEO,USA,USA,Commercial,Communications,Falcon,1 50844U 22001AT  24131.17020796  .00003678  00000+0  24900-3 0  9990,2 50844  53.2159 300.2186 0001764  83.7095 276.4098 15.08847132129342,15.08847132,0.0001764,LEO
50845,STARLINK-3230,2022,95.44,260.0,+,53.22,Active,1,LEO,USA,USA,Commercial,Communications,Falcon,1 50845U 22001AU  24131.61180620  .00002455  00000+0  17223-3 0  9995,2 50845  53.2175 298.2375 0001125  80.3877 279.7242 15.08843429129419,15.08843429,0.0001125,LEO
50846,STARLINK-3308,2022,95.44,260.0,+,53.22,Active,1,LEO,USA,USA,Commercial,Communications,Falcon,1 50846U 22001AV  24131.44253374  .00001773  00000+0  12942-3 0  9999,2 50846  53.2165 299.1164 0000638  61.2526 298.8531 15.08842285129380,15.08842285,6.38e-05,LEO
50847,STARLINK-3319,2022,95.44,260.0,+,53.22,Active,1,LEO,USA,USA,Commercial,Communications,Falcon,1 50847U 22001AW  24131.45820234  .00000189  00000+0  29961-4 0  9996,2 50847  53.2168 298.9369 0001105  85.8311 274.2807 15.08839749129387,15.08839749,0.0001105,LEO
50848,STARLINK-3315,2022,95.44,260.0,+,53.22,Active,1,LEO,USA,USA,Commercial,Communications,Falcon,1 50848U 22001AX  24131.49404743  .00020359  00000+0  12927-2 0  9997,2 50848  53.2168 298.7683 0003436  77.1474 282.9902 15.08862031129391,15.08862031,0.0003436,LEO
